IRIDIUM 180             
1 43922U 19002A   24300.38253398  .00000395  00000+0  13412-3 0  9992
2 43922  86.3969 243.7850 0002135  85.5821 274.5618 14.34215811303168
IRIDIUM 176             
1 43923U 19002B   24300.36349148  .00002556  00000+0  40150-3 0  9990
2 43923  86.6090 243.8036 0002176  92.0150 268.1316 14.72246383311148
IRIDIUM 168             
1 43924U 19002C   24300.37618439  .00000579  00000+0  19948-3 0  9998
2 43924  86.3969 243.8480 0002121  82.9768 277.1668 14.34223642303149
IRIDIUM 173             
1 43925U 19002D   24300.36350461  .00000921  00000+0  32164-3 0  9992
2 43925  86.3964 243.7667 0002081  82.0427 278.1005 14.34219169303122
IRIDIUM 169             
1 43926U 19002E   24300.44660801  .00000731  00000+0  23249-3 0  9997
2 43926  86.4144 275.3713 0003113 118.4332 241.7180 14.38609181304147
IRIDIUM 172             
1 43927U 19002F   24300.35716454  .00000938  00000+0  32780-3 0  9993
2 43927  86.3965 243.7755 0002143  82.5779 277.5661 14.34216652303133
